[{"OBJECT_NAME":"ONEWEB-0287","OBJECT_ID":"2021-075C","EPOCH":"2025-12-26T04:25:01.403328","MEAN_MOTION":13.17653248,"ECCENTRICITY":0.00019597,"INCLINATION":87.9107,"RA_OF_ASC_NODE":40.2634,"ARG_OF_PERICENTER":113.0635,"MEAN_ANOMALY":247.0703,"EPHEMERIS_TYPE":0,"CLASSIFICATION_TYPE":"U","NORAD_CAT_ID":49077,"ELEMENT_SET_NO":999,"REV_AT_EPOCH":21084,"BSTAR":0.00028272206,"MEAN_MOTION_DOT":1.23e-6,"MEAN_MOTION_DDOT":0},{"OBJECT_NAME":"ONEWEB-0288","OBJECT_ID":"2021-075D","EPOCH":"2025-12-26T02:42:32.895936","MEAN_MOTION":13.12443894,"ECCENTRICITY":0.00016819,"INCLINATION":87.8928,"RA_OF_ASC_NODE":25.0301,"ARG_OF_PERICENTER":96.6003,"MEAN_ANOMALY":263.5317,"EPHEMERIS_TYPE":0,"CLASSIFICATION_TYPE":"U","NORAD_CAT_ID":49078,"ELEMENT_SET_NO":999,"REV_AT_EPOCH":21248,"BSTAR":-0.00029122312,"MEAN_MOTION_DOT":-9.2e-7,"MEAN_MOTION_DDOT":0},{"OBJECT_NAME":"ONEWEB-0289","OBJECT_ID":"2021-075E","EPOCH":"2025-12-25T14:45:57.929184","MEAN_MOTION":13.17648611,"ECCENTRICITY":0.0001371,"INCLINATION":87.9099,"RA_OF_ASC_NODE":40.3907,"ARG_OF_PERICENTER":94.7078,"MEAN_ANOMALY":265.421,"EPHEMERIS_TYPE":0,"CLASSIFICATION_TYPE":"U","NORAD_CAT_ID":49079,"ELEMENT_SET_NO":999,"REV_AT_EPOCH":21134,"BSTAR":-4.1481e-7,"MEAN_MOTION_DOT":1.3e-7,"MEAN_MOTION_DDOT":0},{"OBJECT_NAME":"ONEWEB-0290","OBJECT_ID":"2021-075F","EPOCH":"2025-12-26T04:42:03.839328","MEAN_MOTION":13.1764871,"ECCENTRICITY":0.00013474,"INCLINATION":87.9106,"RA_OF_ASC_NODE":40.2378,"ARG_OF_PERICENTER":82.523,"MEAN_ANOMALY":277.6055,"EPHEMERIS_TYPE":0,"CLASSIFICATION_TYPE":"U","NORAD_CAT_ID":49080,"ELEMENT_SET_NO":999,"REV_AT_EPOCH":21083,"BSTAR":0.00024139947,"MEAN_MOTION_DOT":1.07e-6,"MEAN_MOTION_DDOT":0},{"OBJECT_NAME":"ONEWEB-0291","OBJECT_ID":"2021-075G","EPOCH":"2025-12-26T00:41:30.347808","MEAN_MOTION":13.17648197,"ECCENTRICITY":0.00015962,"INCLINATION":87.9107,"RA_OF_ASC_NODE":40.2785,"ARG_OF_PERICENTER":109.3969,"MEAN_ANOMALY":250.7335,"EPHEMERIS_TYPE":0,"CLASSIFICATION_TYPE":"U","NORAD_CAT_ID":49081,"ELEMENT_SET_NO":999,"REV_AT_EPOCH":21080,"BSTAR":-5.9568095e-5,"MEAN_MOTION_DOT":-1.0e-7,"MEAN_MOTION_DDOT":0},{"OBJECT_NAME":"ONEWEB-0293","OBJECT_ID":"2021-075H","EPOCH":"2025-12-26T03:07:18.233760","MEAN_MOTION":13.17648835,"ECCENTRICITY":0.00016711,"INCLINATION":87.9104,"RA_OF_ASC_NODE":40.2777,"ARG_OF_PERICENTER":97.9769,"MEAN_ANOMALY":262.1552,"EPHEMERIS_TYPE":0,"CLASSIFICATION_TYPE":"U","NORAD_CAT_ID":49082,"ELEMENT_SET_NO":999,"REV_AT_EPOCH":21084,"BSTAR":0.00011805815,"MEAN_MOTION_DOT":5.9e-7,"MEAN_MOTION_DDOT":0},{"OBJECT_NAME":"ONEWEB-0294","OBJECT_ID":"2021-075J","EPOCH":"2025-12-26T02:52:18.284448","MEAN_MOTION":13.12443108,"ECCENTRICITY":0.00014155,"INCLINATION":87.893,"RA_OF_ASC_NODE":25.0302,"ARG_OF_PERICENTER":91.8469,"MEAN_ANOMALY":268.2821,"EPHEMERIS_TYPE":0,"CLASSIFICATION_TYPE":"U","NORAD_CAT_ID":49083,"ELEMENT_SET_NO":999,"REV_AT_EPOCH":21187,"BSTAR":-0.00028031986,"MEAN_MOTION_DOT":-8.8e-7,"MEAN_MOTION_DDOT":0},{"OBJECT_NAME":"ONEWEB-0295","OBJECT_ID":"2021-075K","EPOCH":"2025-12-26T03:06:04.467168","MEAN_MOTION":13.17649997,"ECCENTRICITY":0.00016894,"INCLINATION":87.9098,"RA_OF_ASC_NODE":40.2818,"ARG_OF_PERICENTER":109.5722,"MEAN_ANOMALY":250.5593,"EPHEMERIS_TYPE":0,"CLASSIFICATION_TYPE":"U","NORAD_CAT_ID":49084,"ELEMENT_SET_NO":999,"REV_AT_EPOCH":21080,"BSTAR":8.5188755e-5,"MEAN_MOTION_DOT":4.6e-7,"MEAN_MOTION_DDOT":0},{"OBJECT_NAME":"ONEWEB-0296","OBJECT_ID":"2021-075L","EPOCH":"2025-12-26T00:33:14.823072","MEAN_MOTION":13.12442705,"ECCENTRICITY":0.00015749,"INCLINATION":87.8927,"RA_OF_ASC_NODE":25.0531,"ARG_OF_PERICENTER":105.3208,"MEAN_ANOMALY":254.8095,"EPHEMERIS_TYPE":0,"CLASSIFICATION_TYPE":"U","NORAD_CAT_ID":49085,"ELEMENT_SET_NO":999,"REV_AT_EPOCH":21186,"BSTAR":-0.00097877627,"MEAN_MOTION_DOT":-3.39e-6,"MEAN_MOTION_DDOT":0},{"OBJECT_NAME":"ONEWEB-0297","OBJECT_ID":"2021-075M","EPOCH":"2025-12-26T03:06:56.461824","MEAN_MOTION":13.1244376,"ECCENTRICITY":0.00017612,"INCLINATION":87.8922,"RA_OF_ASC_NODE":25.0631,"ARG_OF_PERICENTER":97.275,"MEAN_ANOMALY":262.8578,"EPHEMERIS_TYPE":0,"CLASSIFICATION_TYPE":"U","NORAD_CAT_ID":49086,"ELEMENT_SET_NO":999,"REV_AT_EPOCH":21248,"BSTAR":0.00055919182,"MEAN_MOTION_DOT":2.14e-6,"MEAN_MOTION_DDOT":0},{"OBJECT_NAME":"ONEWEB-0298","OBJECT_ID":"2021-075N","EPOCH":"2025-12-26T03:12:20.486880","MEAN_MOTION":13.17647932,"ECCENTRICITY":0.00019503,"INCLINATION":87.9097,"RA_OF_ASC_NODE":40.278,"ARG_OF_PERICENTER":99.4257,"MEAN_ANOMALY":260.7095,"EPHEMERIS_TYPE":0,"CLASSIFICATION_TYPE":"U","NORAD_CAT_ID":49087,"ELEMENT_SET_NO":999,"REV_AT_EPOCH":21083,"BSTAR":0.00013699914,"MEAN_MOTION_DOT":6.6e-7,"MEAN_MOTION_DDOT":0},{"OBJECT_NAME":"ONEWEB-0299","OBJECT_ID":"2021-075P","EPOCH":"2025-12-26T03:14:35.460096","MEAN_MOTION":13.17649405,"ECCENTRICITY":0.0001829,"INCLINATION":87.9107,"RA_OF_ASC_NODE":40.2406,"ARG_OF_PERICENTER":103.5719,"MEAN_ANOMALY":256.5616,"EPHEMERIS_TYPE":0,"CLASSIFICATION_TYPE":"U","NORAD_CAT_ID":49088,"ELEMENT_SET_NO":999,"REV_AT_EPOCH":21081,"BSTAR":0.0001331898,"MEAN_MOTION_DOT":6.5e-7,"MEAN_MOTION_DDOT":0},{"OBJECT_NAME":"ONEWEB-0300","OBJECT_ID":"2021-075Q","EPOCH":"2025-12-26T02:55:58.547424","MEAN_MOTION":13.12440948,"ECCENTRICITY":0.00020609,"INCLINATION":87.8932,"RA_OF_ASC_NODE":25.0259,"ARG_OF_PERICENTER":92.4893,"MEAN_ANOMALY":267.6472,"EPHEMERIS_TYPE":0,"CLASSIFICATION_TYPE":"U","NORAD_CAT_ID":49089,"ELEMENT_SET_NO":999,"REV_AT_EPOCH":21250,"BSTAR":-0.00013363175,"MEAN_MOTION_DOT":-3.5e-7,"MEAN_MOTION_DDOT":0},{"OBJECT_NAME":"ONEWEB-0301","OBJECT_ID":"2021-075R","EPOCH":"2025-12-26T00:43:00.554592","MEAN_MOTION":13.12442468,"ECCENTRICITY":0.00021553,"INCLINATION":87.8931,"RA_OF_ASC_NODE":25.0463,"ARG_OF_PERICENTER":91.529,"MEAN_ANOMALY":268.6085,"EPHEMERIS_TYPE":0,"CLASSIFICATION_TYPE":"U","NORAD_CAT_ID":49090,"ELEMENT_SET_NO":999,"REV_AT_EPOCH":21185,"BSTAR":-0.00093240203,"MEAN_MOTION_DOT":-3.23e-6,"MEAN_MOTION_DDOT":0},{"OBJECT_NAME":"ONEWEB-0302","OBJECT_ID":"2021-075S","EPOCH":"2025-12-26T02:13:14.665440","MEAN_MOTION":13.1244107,"ECCENTRICITY":0.00014363,"INCLINATION":87.8928,"RA_OF_ASC_NODE":25.0415,"ARG_OF_PERICENTER":97.2099,"MEAN_ANOMALY":262.9193,"EPHEMERIS_TYPE":0,"CLASSIFICATION_TYPE":"U","NORAD_CAT_ID":49091,"ELEMENT_SET_NO":999,"REV_AT_EPOCH":21184,"BSTAR":-0.00055818882,"MEAN_MOTION_DOT":-1.88e-6,"MEAN_MOTION_DDOT":0},{"OBJECT_NAME":"ONEWEB-0304","OBJECT_ID":"2021-075T","EPOCH":"2025-12-26T04:27:27.795168","MEAN_MOTION":13.17651295,"ECCENTRICITY":0.00017638,"INCLINATION":87.9107,"RA_OF_ASC_NODE":40.2612,"ARG_OF_PERICENTER":102.1505,"MEAN_ANOMALY":257.9824,"EPHEMERIS_TYPE":0,"CLASSIFICATION_TYPE":"U","NORAD_CAT_ID":49092,"ELEMENT_SET_NO":999,"REV_AT_EPOCH":21079,"BSTAR":0.00019331901,"MEAN_MOTION_DOT":8.8e-7,"MEAN_MOTION_DDOT":0},{"OBJECT_NAME":"ONEWEB-0305","OBJECT_ID":"2021-075U","EPOCH":"2025-12-26T02:28:25.151232","MEAN_MOTION":13.17648116,"ECCENTRICITY":0.00018645,"INCLINATION":87.9109,"RA_OF_ASC_NODE":40.2546,"ARG_OF_PERICENTER":112.4024,"MEAN_ANOMALY":247.7305,"EPHEMERIS_TYPE":0,"CLASSIFICATION_TYPE":"U","NORAD_CAT_ID":49093,"ELEMENT_SET_NO":999,"REV_AT_EPOCH":21081,"BSTAR":5.8549321e-5,"MEAN_MOTION_DOT":3.6e-7,"MEAN_MOTION_DDOT":0}]
