ONEWEB-0287             
1 49077U 21075C   25360.18404402  .00000123  00000+0  28272-3 0  9990
2 49077  87.9107  40.2634 0001959 113.0635 247.0703 13.17653248210841
ONEWEB-0288             
1 49078U 21075D   25360.11288074 -.00000092  00000+0 -29122-3 0  9991
2 49078  87.8928  25.0301 0001681  96.6003 263.5317 13.12443894212486
ONEWEB-0289             
1 49079U 21075E   25359.61525381  .00000013  00000+0 -41481-6 0  9997
2 49079  87.9099  40.3907 0001371  94.7078 265.4210 13.17648611211342
ONEWEB-0290             
1 49080U 21075F   25360.19587777  .00000107  00000+0  24140-3 0  9994
2 49080  87.9106  40.2378 0001347  82.5230 277.6055 13.17648710210837
ONEWEB-0291             
1 49081U 21075G   25360.02882347 -.00000010  00000+0 -59568-4 0  9996
2 49081  87.9107  40.2785 0001596 109.3969 250.7335 13.17648197210803
ONEWEB-0293             
1 49082U 21075H   25360.13007215  .00000059  00000+0  11806-3 0  9995
2 49082  87.9104  40.2777 0001671  97.9769 262.1552 13.17648835210847
ONEWEB-0294             
1 49083U 21075J   25360.11965607 -.00000088  00000+0 -28032-3 0  9995
2 49083  87.8930  25.0302 0001415  91.8469 268.2821 13.12443108211876
ONEWEB-0295             
1 49084U 21075K   25360.12921837  .00000046  00000+0  85189-4 0  9993
2 49084  87.9098  40.2818 0001689 109.5722 250.5593 13.17649997210807
ONEWEB-0296             
1 49085U 21075L   25360.02308823 -.00000339  00000+0 -97878-3 0  9991
2 49085  87.8927  25.0531 0001574 105.3208 254.8095 13.12442705211861
ONEWEB-0297             
1 49086U 21075M   25360.12982016  .00000214  00000+0  55919-3 0  9995
2 49086  87.8922  25.0631 0001761  97.2750 262.8578 13.12443760212483
ONEWEB-0298             
1 49087U 21075N   25360.13357045  .00000066  00000+0  13700-3 0  9992
2 49087  87.9097  40.2780 0001950  99.4257 260.7095 13.17647932210838
ONEWEB-0299             
1 49088U 21075P   25360.13513264  .00000065  00000+0  13319-3 0  9995
2 49088  87.9107  40.2406 0001829 103.5719 256.5616 13.17649405210818
ONEWEB-0300             
1 49089U 21075Q   25360.12220541 -.00000035  00000+0 -13363-3 0  9996
2 49089  87.8932  25.0259 0002060  92.4893 267.6472 13.12440948212505
ONEWEB-0301             
1 49090U 21075R   25360.02986753 -.00000323  00000+0 -93240-3 0  9993
2 49090  87.8931  25.0463 0002155  91.5290 268.6085 13.12442468211856
ONEWEB-0302             
1 49091U 21075S   25360.09253085 -.00000188  00000+0 -55819-3 0  9995
2 49091  87.8928  25.0415 0001436  97.2099 262.9193 13.12441070211845
ONEWEB-0304             
1 49092U 21075T   25360.18573837  .00000088  00000+0  19332-3 0  9993
2 49092  87.9107  40.2612 0001763 102.1505 257.9824 13.17651295210790
ONEWEB-0305             
1 49093U 21075U   25360.10306888  .00000036  00000+0  58549-4 0  9993
2 49093  87.9109  40.2546 0001864 112.4024 247.7305 13.17648116210813
